ONEWEB-0118             
1 47264U 20100G   24028.39768562 -.00000302  00000+0 -87529-3 0  9998
2 47264  87.9032 163.8973 0000941  97.3720 262.7515 13.12442320150504
ONEWEB-0119             
1 47265U 20100H   24028.42628817  .00000305  00000+0  81358-3 0  9996
2 47265  87.9033 163.9300 0001641 101.1647 258.9666 13.12443844150484
ONEWEB-0120             
1 47266U 20100J   24028.37943777  .00000126  00000+0  31552-3 0  9998
2 47266  87.9035 163.9296 0001353  97.6770 262.4513 13.12444159150501
ONEWEB-0121             
1 47267U 20100K   24028.43740460  .00000472  00000+0  12775-2 0  9999
2 47267  87.9030 163.9132 0001689 103.6521 256.4795 13.12443034150427
ONEWEB-0122             
1 47268U 20100L   24028.43250991  .00001132  00000+0  31099-2 0  9999
2 47268  87.9028 163.9187 0002226 105.0655 255.0720 13.12438474150332
ONEWEB-0123             
1 47269U 20100M   24028.42787664  .00000353  00000+0  94527-3 0  9991
2 47269  87.9033 163.9286 0001531 101.9031 258.2269 13.12443891150477
ONEWEB-0124             
1 47270U 20100N   24028.41676176 -.00000048  00000+0 -16987-3 0  9994
2 47270  87.9032 163.9263 0001829 102.3326 257.8007 13.12443310150353
ONEWEB-0125             
1 47271U 20100P   24028.39133464 -.00000187  00000+0 -55643-3 0  9996
2 47271  87.9034 163.8891 0001354 114.0755 246.0515 13.12442746150414
